{
  "type": "FeatureCollection",
  "features": [
    {
      "type": "Feature",
      "properties": {
        "norad_id": 35445,
        "name": "COSMOS 2251 DEB",
        "group": "cosmos-2251-debris",
        "lat": -60.39807883027031,
        "lon": 135.50082398288043,
        "alt_km": 760.6268704179301,
        "timestamp": "2025-12-20T11:30:28.772145+00:00",
        "meta_object_name": "COSMOS 2251 DEB",
        "meta_object_id": "1993-036AKP",
        "meta_epoch": "2025-12-20T02:09:32.474016",
        "meta_mean_motion": 14.59298517,
        "meta_eccentricity": 0.0143911,
        "meta_inclination": 74.0379,
        "meta_ra_of_asc_node": 285.9917,
        "meta_arg_of_pericenter": 11.2111,
        "meta_mean_anomaly": 349.2201,
        "meta_ephemeris_type": 0,
        "meta_classification_type": "U",
        "meta_norad_cat_id": 35445,
        "meta_element_set_no": 999,
        "meta_rev_at_epoch": 87436,
        "meta_bstar": 0.0013926,
        "meta_mean_motion_dot": 7.582e-05,
        "meta_mean_motion_ddot": 0,
        "tle_line1": "1 35445U 93036AKP 25354.08995919  .00007582  00000+0  13926-2 0  9995",
        "tle_line2": "2 35445  74.0379 285.9917 0143911  11.2111 349.2201 14.59298517874360"
      },
      "geometry": {
        "type": "Point",
        "coordinates": [
          135.50082398288043,
          -60.39807883027031
        ]
      }
    },
    {
      "type": "Feature",
      "properties": {
        "norad_id": 35446,
        "name": "COSMOS 2251 DEB",
        "group": "cosmos-2251-debris",
        "lat": 23.865857903436726,
        "lon": 116.27740303642894,
        "alt_km": 714.2305320550076,
        "timestamp": "2025-12-20T11:30:28.772155+00:00",
        "meta_object_name": "COSMOS 2251 DEB",
        "meta_object_id": "1993-036AKQ",
        "meta_epoch": "2025-12-18T05:59:12.750432",
        "meta_mean_motion": 14.54634793,
        "meta_eccentricity": 0.00745391,
        "meta_inclination": 74.0467,
        "meta_ra_of_asc_node": 307.7629,
        "meta_arg_of_pericenter": 64.3886,
        "meta_mean_anomaly": 296.4954,
        "meta_ephemeris_type": 0,
        "meta_classification_type": "U",
        "meta_norad_cat_id": 35446,
        "meta_element_set_no": 999,
        "meta_rev_at_epoch": 88088,
        "meta_bstar": 9.8850262e-05,
        "meta_mean_motion_dot": 4.08e-06,
        "meta_mean_motion_ddot": 0,
        "tle_line1": "1 35446U 93036AKQ 25352.24945313  .00000408  00000+0  98850-4 0  9996",
        "tle_line2": "2 35446  74.0467 307.7629 0074539  64.3886 296.4954 14.54634793880886"
      },
      "geometry": {
        "type": "Point",
        "coordinates": [
          116.27740303642894,
          23.865857903436726
        ]
      }
    },
    {
      "type": "Feature",
      "properties": {
        "norad_id": 35448,
        "name": "COSMOS 2251 DEB",
        "group": "cosmos-2251-debris",
        "lat": 3.6969748978097092,
        "lon": 75.82694572080787,
        "alt_km": 716.162427314559,
        "timestamp": "2025-12-20T11:30:28.772164+00:00",
        "meta_object_name": "COSMOS 2251 DEB",
        "meta_object_id": "1993-036AKS",
        "meta_epoch": "2025-12-17T15:48:08.057376",
        "meta_mean_motion": 14.54306329,
        "meta_eccentricity": 0.00121573,
        "meta_inclination": 73.9037,
        "meta_ra_of_asc_node": 80.133,
        "meta_arg_of_pericenter": 263.1799,
        "meta_mean_anomaly": 96.798,
        "meta_ephemeris_type": 0,
        "meta_classification_type": "U",
        "meta_norad_cat_id": 35448,
        "meta_element_set_no": 999,
        "meta_rev_at_epoch": 87406,
        "meta_bstar": 0.00080210225,
        "meta_mean_motion_dot": 3.379e-05,
        "meta_mean_motion_ddot": 0,
        "tle_line1": "1 35448U 93036AKS 25351.65842659  .00003379  00000+0  80210-3 0  9991",
        "tle_line2": "2 35448  73.9037  80.1330 0012157 263.1799  96.7980 14.54306329874064"
      },
      "geometry": {
        "type": "Point",
        "coordinates": [
          75.82694572080787,
          3.6969748978097092
        ]
      }
    },
    {
      "type": "Feature",
      "properties": {
        "norad_id": 35451,
        "name": "COSMOS 2251 DEB",
        "group": "cosmos-2251-debris",
        "lat": 38.56817464521123,
        "lon": -107.34682632585917,
        "alt_km": 481.6682515489956,
        "timestamp": "2025-12-20T11:30:28.772175+00:00",
        "meta_object_name": "COSMOS 2251 DEB",
        "meta_object_id": "1993-036AKV",
        "meta_epoch": "2025-12-19T23:57:44.472096",
        "meta_mean_motion": 15.3628162,
        "meta_eccentricity": 0.0041565,
        "meta_inclination": 73.9333,
        "meta_ra_of_asc_node": 86.979,
        "meta_arg_of_pericenter": 332.0017,
        "meta_mean_anomaly": 27.8952,
        "meta_ephemeris_type": 0,
        "meta_classification_type": "U",
        "meta_norad_cat_id": 35451,
        "meta_element_set_no": 999,
        "meta_rev_at_epoch": 67517,
        "meta_bstar": 0.0009808,
        "meta_mean_motion_dot": 0.00035831,
        "meta_mean_motion_ddot": 0,
        "tle_line1": "1 35451U 93036AKV 25353.99843139  .00035831  00000+0  98080-3 0  9990",
        "tle_line2": "2 35451  73.9333  86.9790 0041565 332.0017  27.8952 15.36281620675177"
      },
      "geometry": {
        "type": "Point",
        "coordinates": [
          -107.34682632585917,
          38.56817464521123
        ]
      }
    },
    {
      "type": "Feature",
      "properties": {
        "norad_id": 35453,
        "name": "COSMOS 2251 DEB",
        "group": "cosmos-2251-debris",
        "lat": -35.20659411747497,
        "lon": -5.577301472853603,
        "alt_km": 818.6016333000462,
        "timestamp": "2025-12-20T11:30:28.772185+00:00",
        "meta_object_name": "COSMOS 2251 DEB",
        "meta_object_id": "1993-036AKX",
        "meta_epoch": "2025-12-16T19:11:22.117056",
        "meta_mean_motion": 14.38003213,
        "meta_eccentricity": 0.00669431,
        "meta_inclination": 74.0096,
        "meta_ra_of_asc_node": 12.8823,
        "meta_arg_of_pericenter": 145.8531,
        "meta_mean_anomaly": 214.6957,
        "meta_ephemeris_type": 0,
        "meta_classification_type": "U",
        "meta_norad_cat_id": 35453,
        "meta_element_set_no": 999,
        "meta_rev_at_epoch": 86277,
        "meta_bstar": 0.00051941791,
        "meta_mean_motion_dot": 1.586e-05,
        "meta_mean_motion_ddot": 0,
        "tle_line1": "1 35453U 93036AKX 25350.79956154  .00001586  00000+0  51942-3 0  9995",
        "tle_line2": "2 35453  74.0096  12.8823 0066943 145.8531 214.6957 14.38003213862776"
      },
      "geometry": {
        "type": "Point",
        "coordinates": [
          -5.577301472853603,
          -35.20659411747497
        ]
      }
    },
    {
      "type": "Feature",
      "properties": {
        "norad_id": 35455,
        "name": "COSMOS 2251 DEB",
        "group": "cosmos-2251-debris",
        "lat": 41.93512319676224,
        "lon": 85.36346401949555,
        "alt_km": 751.6780489128832,
        "timestamp": "2025-12-20T11:30:28.772194+00:00",
        "meta_object_name": "COSMOS 2251 DEB",
        "meta_object_id": "1993-036AKZ",
        "meta_epoch": "2025-12-19T05:04:27.934752",
        "meta_mean_motion": 14.49478057,
        "meta_eccentricity": 0.0099568,
        "meta_inclination": 74.0286,
        "meta_ra_of_asc_node": 282.6521,
        "meta_arg_of_pericenter": 24.6393,
        "meta_mean_anomaly": 335.9475,
        "meta_ephemeris_type": 0,
        "meta_classification_type": "U",
        "meta_norad_cat_id": 35455,
        "meta_element_set_no": 999,
        "meta_rev_at_epoch": 86637,
        "meta_bstar": 0.0010888,
        "meta_mean_motion_dot": 4.417e-05,
        "meta_mean_motion_ddot": 0,
        "tle_line1": "1 35455U 93036AKZ 25353.21143443  .00004417  00000+0  10888-2 0  9995",
        "tle_line2": "2 35455  74.0286 282.6521 0099568  24.6393 335.9475 14.49478057866376"
      },
      "geometry": {
        "type": "Point",
        "coordinates": [
          85.36346401949555,
          41.93512319676224
        ]
      }
    },
    {
      "type": "Feature",
      "properties": {
        "norad_id": 35456,
        "name": "COSMOS 2251 DEB",
        "group": "cosmos-2251-debris",
        "lat": -24.855410614944134,
        "lon": 94.74059110974748,
        "alt_km": 624.8643135270713,
        "timestamp": "2025-12-20T11:30:28.772204+00:00",
        "meta_object_name": "COSMOS 2251 DEB",
        "meta_object_id": "1993-036ALA",
        "meta_epoch": "2025-12-16T14:29:43.540224",
        "meta_mean_motion": 14.69499444,
        "meta_eccentricity": 0.00664454,
        "meta_inclination": 73.9504,
        "meta_ra_of_asc_node": 109.9489,
        "meta_arg_of_pericenter": 318.8739,
        "meta_mean_anomaly": 40.7432,
        "meta_ephemeris_type": 0,
        "meta_classification_type": "U",
        "meta_norad_cat_id": 35456,
        "meta_element_set_no": 999,
        "meta_rev_at_epoch": 65932,
        "meta_bstar": 0.0012425086,
        "meta_mean_motion_dot": 7.595e-05,
        "meta_mean_motion_ddot": 0,
        "tle_line1": "1 35456U 93036ALA 25350.60397616  .00007595  00000+0  12425-2 0  9998",
        "tle_line2": "2 35456  73.9504 109.9489 0066445 318.8739  40.7432 14.69499444659326"
      },
      "geometry": {
        "type": "Point",
        "coordinates": [
          94.74059110974748,
          -24.855410614944134
        ]
      }
    }
  ]
}